start=new Date('2022-11-04T00:00:00.000Z').valueOf();
sats=[{"APOAPSIS":"351.381","SITE":"AFETR","EPHEMERIS_TYPE":"0","OBJECT_NAME":"STARLINK-5002","ARG_OF_PERICENTER":"23.2205","COUNTRY_CODE":"US","TLE_LINE2":"2 53922  53.2158  55.2616 0002375  23.2205 141.3315 15.73191974  1302","DECAY_DATE":null,"MEAN_MOTION":"15.73191974","CLASSIFICATION_TYPE":"U","FILE":"3644033","PERIOD":"91.534","OBJECT_ID":"2022-119AN","EPOCH":"2022-11-03T22:00:00.999936","TIME_SYSTEM":"UTC","LAUNCH_DATE":"2022-09-24","MEAN_MOTION_DDOT":"0.0000000000000","GP_ID":"216863708","INCLINATION":"53.2158","PERIAPSIS":"348.185","OBJECT_TYPE":"PAYLOAD","MEAN_MOTION_DOT":"0.00018431","TLE_LINE1":"1 53922U 22119AN  22307.91667824  .00018431  00000-0  13549-3 0  9995","CENTER_NAME":"EARTH","ELEMENT_SET_NO":"999","MEAN_ANOMALY":"141.3315","REF_FRAME":"TEME","RCS_SIZE":"LARGE","REV_AT_EPOCH":"130","MEAN_ELEMENT_THEORY":"SGP4","ECCENTRICITY":"0.00023750","BSTAR":"0.00013549000000","RA_OF_ASC_NODE":"55.2616","SEMIMAJOR_AXIS":"6727.918","NORAD_CAT_ID":"53922"},{"COUNTRY_CODE":"US","TLE_LINE2":"2 53923  53.2154  55.2645 0002625  18.6608 144.7098 15.73279477  1304","DECAY_DATE":null,"MEAN_MOTION":"15.73279477","SITE":"AFETR","APOAPSIS":"351.300","OBJECT_NAME":"STARLINK-5004","ARG_OF_PERICENTER":"18.6608","EPHEMERIS_TYPE":"0","CLASSIFICATION_TYPE":"U","FILE":"3644033","OBJECT_ID":"2022-119AP","PERIOD":"91.529","TIME_SYSTEM":"UTC","LAUNCH_DATE":"2022-09-24","MEAN_MOTION_DDOT":"0.0000000000000","EPOCH":"2022-11-03T22:00:00.999936","INCLINATION":"53.2154","GP_ID":"216863883","CENTER_NAME":"EARTH","PERIAPSIS":"347.768","OBJECT_TYPE":"PAYLOAD","TLE_LINE1":"1 53923U 22119AP  22307.91667824 -.00104681  00000-0 -74801-3 0  9999","MEAN_MOTION_DOT":"-0.00104681","ELEMENT_SET_NO":"999","MEAN_ANOMALY":"144.7098","RCS_SIZE":"LARGE","REV_AT_EPOCH":"130","ECCENTRICITY":"0.00026250","MEAN_ELEMENT_THEORY":"SGP4","REF_FRAME":"TEME","BSTAR":"-0.00074801000000","RA_OF_ASC_NODE":"55.2645","SEMIMAJOR_AXIS":"6727.669","NORAD_CAT_ID":"53923"},{"MEAN_MOTION":"15.73287201","TLE_LINE2":"2 53924  53.2154  55.2582 0002652  20.0529 146.2389 15.73287201  1308","COUNTRY_CODE":"US","DECAY_DATE":null,"APOAPSIS":"351.296","SITE":"AFETR","OBJECT_NAME":"STARLINK-5001","ARG_OF_PERICENTER":"20.0529","EPHEMERIS_TYPE":"0","FILE":"3644033","PERIOD":"91.528","OBJECT_ID":"2022-119AQ","CLASSIFICATION_TYPE":"U","LAUNCH_DATE":"2022-09-24","MEAN_MOTION_DDOT":"0.0000000000000","TIME_SYSTEM":"UTC","EPOCH":"2022-11-03T22:00:00.999936","INCLINATION":"53.2154","GP_ID":"216864646","CENTER_NAME":"EARTH","OBJECT_TYPE":"PAYLOAD","MEAN_MOTION_DOT":"-0.00077337","TLE_LINE1":"1 53924U 22119AQ  22307.91667824 -.00077337  00000-0 -54949-3 0  9998","PERIAPSIS":"347.727","MEAN_ANOMALY":"146.2389","ELEMENT_SET_NO":"999","ECCENTRICITY":"0.00026520","MEAN_ELEMENT_THEORY":"SGP4","REV_AT_EPOCH":"130","RCS_SIZE":"LARGE","REF_FRAME":"TEME","NORAD_CAT_ID":"53924","SEMIMAJOR_AXIS":"6727.647","RA_OF_ASC_NODE":"55.2582","BSTAR":"-0.00054949000000"},{"OBJECT_ID":"2022-119AR","PERIOD":"91.528","FILE":"3644033","CLASSIFICATION_TYPE":"U","MEAN_MOTION":"15.73286872","DECAY_DATE":null,"COUNTRY_CODE":"US","TLE_LINE2":"2 53925  53.2162  55.2692 0002890  16.5630 145.5502 15.73286872  1309","OBJECT_NAME":"STARLINK-5011","ARG_OF_PERICENTER":"16.5630","EPHEMERIS_TYPE":"0","APOAPSIS":"351.457","SITE":"AFETR","INCLINATION":"53.2162","GP_ID":"216864751","LAUNCH_DATE":"2022-09-24","MEAN_MOTION_DDOT":"0.0000000000000","TIME_SYSTEM":"UTC","EPOCH":"2022-11-03T22:00:00.999936","MEAN_ANOMALY":"145.5502","ELEMENT_SET_NO":"999","CENTER_NAME":"EARTH","MEAN_MOTION_DOT":"-0.00078716","TLE_LINE1":"1 53925U 22119AR  22307.91667824 -.00078716  00000-0 -55944-3 0  9997","OBJECT_TYPE":"PAYLOAD","PERIAPSIS":"347.568","NORAD_CAT_ID":"53925","SEMIMAJOR_AXIS":"6727.648","RA_OF_ASC_NODE":"55.2692","BSTAR":"-0.00055944000000","ECCENTRICITY":"0.00028900","MEAN_ELEMENT_THEORY":"SGP4","RCS_SIZE":"LARGE","REV_AT_EPOCH":"130","REF_FRAME":"TEME"},{"NORAD_CAT_ID":"53926","SEMIMAJOR_AXIS":"6727.654","BSTAR":"-0.00053205000000","RA_OF_ASC_NODE":"55.2563","MEAN_ELEMENT_THEORY":"SGP4","ECCENTRICITY":"0.00023230","REV_AT_EPOCH":"130","RCS_SIZE":"LARGE","REF_FRAME":"TEME","MEAN_ANOMALY":"143.1908","ELEMENT_SET_NO":"999","CENTER_NAME":"EARTH","OBJECT_TYPE":"PAYLOAD","TLE_LINE1":"1 53926U 22119AS  22307.91667824 -.00074910  00000-0 -53205-3 0  9998","MEAN_MOTION_DOT":"-0.00074910","PERIAPSIS":"347.956","INCLINATION":"53.2154","GP_ID":"216864127","MEAN_MOTION_DDOT":"0.0000000000000","LAUNCH_DATE":"2022-09-24","TIME_SYSTEM":"UTC","EPOCH":"2022-11-03T22:00:00.999936","FILE":"3644033","PERIOD":"91.528","OBJECT_ID":"2022-119AS","CLASSIFICATION_TYPE":"U","MEAN_MOTION":"15.73284574","TLE_LINE2":"2 53926  53.2154  55.2563 0002323  23.6826 143.1908 15.73284574  1306","COUNTRY_CODE":"US","DECAY_DATE":null,"APOAPSIS":"351.082","SITE":"AFETR","OBJECT_NAME":"STARLINK-5014","ARG_OF_PERICENTER":"23.6826","EPHEMERIS_TYPE":"0"},{"ELEMENT_SET_NO":"999","MEAN_ANOMALY":"146.1287","CENTER_NAME":"EARTH","PERIAPSIS":"347.956","TLE_LINE1":"1 53927U 22119AT  22307.91667824 -.00052959  00000-0 -37419-3 0  9997","MEAN_MOTION_DOT":"-0.00052959","OBJECT_TYPE":"PAYLOAD","BSTAR":"-0.00037419000000","RA_OF_ASC_NODE":"55.2576","NORAD_CAT_ID":"53927","SEMIMAJOR_AXIS":"6727.713","REV_AT_EPOCH":"130","RCS_SIZE":"LARGE","MEAN_ELEMENT_THEORY":"SGP4","ECCENTRICITY":"0.00024100","REF_FRAME":"TEME","CLASSIFICATION_TYPE":"U","OBJECT_ID":"2022-119AT","PERIOD":"91.529","FILE":"3644033","DECAY_DATE":null,"COUNTRY_CODE":"US","TLE_LINE2":"2 53927  53.2153  55.2576 0002410  19.5658 146.1287 15.73263969  1302","MEAN_MOTION":"15.73263969","EPHEMERIS_TYPE":"0","ARG_OF_PERICENTER":"19.5658","OBJECT_NAME":"STARLINK-5008","APOAPSIS":"351.199","SITE":"AFETR","INCLINATION":"53.2153","GP_ID":"216864302","TIME_SYSTEM":"UTC","LAUNCH_DATE":"2022-09-24","MEAN_MOTION_DDOT":"0.0000000000000","EPOCH":"2022-11-03T22:00:00.999936"},{"ECCENTRICITY":"0.00023700","MEAN_ELEMENT_THEORY":"SGP4","REV_AT_EPOCH":"672","RCS_SIZE":"LARGE","REF_FRAME":"TEME","NORAD_CAT_ID":"53928","SEMIMAJOR_AXIS":"6727.678","RA_OF_ASC_NODE":"55.2536","BSTAR":"-0.00067880000000","CENTER_NAME":"EARTH","MEAN_MOTION_DOT":"-0.00095141","TLE_LINE1":"1 53928U 22119AU  22307.91667824 -.00095141  00000-0 -67880-3 0  9993","OBJECT_TYPE":"PAYLOAD","PERIAPSIS":"347.949","MEAN_ANOMALY":"145.3869","ELEMENT_SET_NO":"999","MEAN_MOTION_DDOT":"0.0000000000000","LAUNCH_DATE":"2022-09-24","TIME_SYSTEM":"UTC","EPOCH":"2022-11-03T22:00:00.999936","INCLINATION":"53.2153","GP_ID":"216835679","MEAN_MOTION":"15.73276181","DECAY_DATE":null,"TLE_LINE2":"2 53928  53.2153  55.2536 0002370  22.0942 145.3869 15.73276181  6727","COUNTRY_CODE":"US","EPHEMERIS_TYPE":"0","OBJECT_NAME":"STARLINK-5009","ARG_OF_PERICENTER":"22.0942","APOAPSIS":"351.137","SITE":"AFETR","OBJECT_ID":"2022-119AU","PERIOD":"91.529","FILE":"3643866","CLASSIFICATION_TYPE":"U"},{"OBJECT_NAME":"STARLINK-5018","ARG_OF_PERICENTER":"359.1961","EPHEMERIS_TYPE":"0","APOAPSIS":"352.277","SITE":"AFETR","MEAN_MOTION":"15.73279135","DECAY_DATE":null,"TLE_LINE2":"2 53929  53.2149  55.2582 0004077 359.1961 165.9575 15.73279135  1308","COUNTRY_CODE":"US","PERIOD":"91.529","OBJECT_ID":"2022-119AV","FILE":"3644033","CLASSIFICATION_TYPE":"U","EPOCH":"2022-11-03T22:00:00.999936","MEAN_MOTION_DDOT":"0.0000000000000","LAUNCH_DATE":"2022-09-24","TIME_SYSTEM":"UTC","GP_ID":"216864472","INCLINATION":"53.2149","TLE_LINE1":"1 53929U 22119AV  22307.91667824 -.00102055  00000-0 -72864-3 0  9995","MEAN_MOTION_DOT":"-0.00102055","OBJECT_TYPE":"PAYLOAD","PERIAPSIS":"346.792","CENTER_NAME":"EARTH","MEAN_ANOMALY":"165.9575","ELEMENT_SET_NO":"999","REF_FRAME":"TEME","ECCENTRICITY":"0.00040770","MEAN_ELEMENT_THEORY":"SGP4","REV_AT_EPOCH":"130","RCS_SIZE":"LARGE","SEMIMAJOR_AXIS":"6727.670","NORAD_CAT_ID":"53929","RA_OF_ASC_NODE":"55.2582","BSTAR":"-0.00072864000000"},{"MEAN_MOTION_DOT":"-0.00091204","TLE_LINE1":"1 53930U 22119AW  22307.91667824 -.00091204  00000-0 -64975-3 0  9994","OBJECT_TYPE":"PAYLOAD","PERIAPSIS":"347.701","CENTER_NAME":"EARTH","MEAN_ANOMALY":"151.4655","ELEMENT_SET_NO":"999","REF_FRAME":"TEME","MEAN_ELEMENT_THEORY":"SGP4","ECCENTRICITY":"0.00026720","REV_AT_EPOCH":"130","RCS_SIZE":"LARGE","NORAD_CAT_ID":"53930","SEMIMAJOR_AXIS":"6727.634","BSTAR":"-0.00064975000000","RA_OF_ASC_NODE":"55.2533","EPHEMERIS_TYPE":"0","OBJECT_NAME":"STARLINK-5010","ARG_OF_PERICENTER":"17.2141","APOAPSIS":"351.296","SITE":"AFETR","MEAN_MOTION":"15.73291728","DECAY_DATE":null,"COUNTRY_CODE":"US","TLE_LINE2":"2 53930  53.2159  55.2533 0002672  17.2141 151.4655 15.73291728  1309","OBJECT_ID":"2022-119AW","PERIOD":"91.528","FILE":"3644033","CLASSIFICATION_TYPE":"U","EPOCH":"2022-11-03T22:00:00.999936","LAUNCH_DATE":"2022-09-24","MEAN_MOTION_DDOT":"0.0000000000000","TIME_SYSTEM":"UTC","GP_ID":"216863709","INCLINATION":"53.2159"},{"APOAPSIS":"351.670","SITE":"AFETR","OBJECT_NAME":"STARLINK-5015","ARG_OF_PERICENTER":"8.9483","EPHEMERIS_TYPE":"0","MEAN_MOTION":"15.73276110","TLE_LINE2":"2 53931  53.2146  55.2469 0003161   8.9483 160.9417 15.73276110  1303","COUNTRY_CODE":"US","DECAY_DATE":null,"FILE":"3644033","PERIOD":"91.529","OBJECT_ID":"2022-119AX","CLASSIFICATION_TYPE":"U","EPOCH":"2022-11-03T22:00:00.999936","LAUNCH_DATE":"2022-09-24","MEAN_MOTION_DDOT":"0.0000000000000","TIME_SYSTEM":"UTC","GP_ID":"216863884","INCLINATION":"53.2146","OBJECT_TYPE":"PAYLOAD","TLE_LINE1":"1 53931U 22119AX  22307.91667824 -.00102931  00000-0 -73529-3 0  9990","MEAN_MOTION_DOT":"-0.00102931","PERIAPSIS":"347.417","CENTER_NAME":"EARTH","MEAN_ANOMALY":"160.9417","ELEMENT_SET_NO":"999","REF_FRAME":"TEME","MEAN_ELEMENT_THEORY":"SGP4","ECCENTRICITY":"0.00031610","REV_AT_EPOCH":"130","RCS_SIZE":"LARGE","NORAD_CAT_ID":"53931","SEMIMAJOR_AXIS":"6727.678","BSTAR":"-0.00073529000000","RA_OF_ASC_NODE":"55.2469"}];
